STARLINK-3637           
1 51799U 22017AH  26068.09369117 -.00000295  00000+0 -43825-6 0  9996
2 51799  53.2187 351.7963 0001248  89.4046 270.7089 15.08836291223833
LEMUR-2-STELLA          
1 60533U 24149BT  26068.72657350  .00013685  00000+0  85776-3 0  9992
2 60533  97.6764 150.9122 0001299  95.1117 265.0260 15.09464064 85488
